TIANMU-1 08             
1 57400U 23101B   26066.00237819  .00000346  00000+0  14775-4 0  9993
2 57400  97.2717 118.7901 0006380 134.2174 225.9592 15.29204229146020
STARLINK-34772          
1 65020U 25161F   26068.84041188  .00027179  00000+0  92599-3 0  9996
2 65020  53.1570 293.4520 0000838 108.4663 251.6429 15.30214575 35468
